{"fetched_at":"2026-07-07T18:29:31.841Z","source":"https://celestrak.org/NORAD/elements/gp.php?NAME=ICEYE&FORMAT=JSON","constellation":"iceye","records":[{"OBJECT_NAME":"ICEYE-X40","OBJECT_ID":"2024-149CK","EPOCH":"2026-07-07T06:36:22.599648","CLASSIFICATION_TYPE":"U","MEAN_MOTION":14.98034354,"ECCENTRICITY":0.0007884,"INCLINATION":97.6815,"RA_OF_ASC_NODE":264.4365,"ARG_OF_PERICENTER":21.5066,"MEAN_ANOMALY":338.6487,"EPHEMERIS_TYPE":0,"NORAD_CAT_ID":60549,"ELEMENT_SET_NO":999,"REV_AT_EPOCH":10308,"BSTAR":0.00012961,"MEAN_MOTION_DOT":0.00001474,"MEAN_MOTION_DDOT":0},{"OBJECT_NAME":"ICEYE-X49","OBJECT_ID":"2024-247H","EPOCH":"2026-07-07T05:40:34.059648","CLASSIFICATION_TYPE":"U","MEAN_MOTION":15.13579428,"ECCENTRICITY":0.0001185,"INCLINATION":44.9985,"RA_OF_ASC_NODE":250.3138,"ARG_OF_PERICENTER":237.58,"MEAN_ANOMALY":122.4963,"EPHEMERIS_TYPE":0,"NORAD_CAT_ID":62384,"ELEMENT_SET_NO":999,"REV_AT_EPOCH":8521,"BSTAR":0.00018212,"MEAN_MOTION_DOT":0.00003067,"MEAN_MOTION_DDOT":0},{"OBJECT_NAME":"ICEYE-X47","OBJECT_ID":"2024-247N","EPOCH":"2026-07-07T11:25:13.497024","CLASSIFICATION_TYPE":"U","MEAN_MOTION":15.13464344,"ECCENTRICITY":0.0002112,"INCLINATION":44.9954,"RA_OF_ASC_NODE":248.6236,"ARG_OF_PERICENTER":317.5108,"MEAN_ANOMALY":42.5606,"EPHEMERIS_TYPE":0,"NORAD_CAT_ID":62389,"ELEMENT_SET_NO":999,"REV_AT_EPOCH":8525,"BSTAR":0.00013005,"MEAN_MOTION_DOT":0.00002108,"MEAN_MOTION_DDOT":0},{"OBJECT_NAME":"ICEYE-X42","OBJECT_ID":"2025-009CT","EPOCH":"2026-07-06T17:24:04.097952","CLASSIFICATION_TYPE":"U","MEAN_MOTION":14.91850456,"ECCENTRICITY":0.000132,"INCLINATION":97.7389,"RA_OF_ASC_NODE":265.6884,"ARG_OF_PERICENTER":91.2261,"MEAN_ANOMALY":268.9109,"EPHEMERIS_TYPE":0,"NORAD_CAT_ID":62698,"ELEMENT_SET_NO":999,"REV_AT_EPOCH":8020,"BSTAR":0.00015356,"MEAN_MOTION_DOT":0.00001495,"MEAN_MOTION_DDOT":0},{"OBJECT_NAME":"ICEYE-X41","OBJECT_ID":"2025-009CV","EPOCH":"2026-07-06T15:46:30.112608","CLASSIFICATION_TYPE":"U","MEAN_MOTION":14.9688694,"ECCENTRICITY":0.0001112,"INCLINATION":97.7069,"RA_OF_ASC_NODE":266.9014,"ARG_OF_PERICENTER":26.4033,"MEAN_ANOMALY":333.7245,"EPHEMERIS_TYPE":0,"NORAD_CAT_ID":62700,"ELEMENT_SET_NO":999,"REV_AT_EPOCH":8032,"BSTAR":0.00021255,"MEAN_MOTION_DOT":0.00002381,"MEAN_MOTION_DDOT":0},{"OBJECT_NAME":"ICEYE-X45","OBJECT_ID":"2025-009DA","EPOCH":"2026-07-07T04:44:15.764352","CLASSIFICATION_TYPE":"U","MEAN_MOTION":15.00828459,"ECCENTRICITY":0.0001403,"INCLINATION":97.8378,"RA_OF_ASC_NODE":275.0454,"ARG_OF_PERICENTER":88.3331,"MEAN_ANOMALY":271.8053,"EPHEMERIS_TYPE":0,"NORAD_CAT_ID":62705,"ELEMENT_SET_NO":999,"REV_AT_EPOCH":8068,"BSTAR":-0.00016279,"MEAN_MOTION_DOT":-0.00002128,"MEAN_MOTION_DDOT":0},{"OBJECT_NAME":"ICEYE-X44","OBJECT_ID":"2025-009DC","EPOCH":"2026-07-07T03:36:30.074976","CLASSIFICATION_TYPE":"U","MEAN_MOTION":14.96134271,"ECCENTRICITY":0.0002439,"INCLINATION":97.7044,"RA_OF_ASC_NODE":266.9613,"ARG_OF_PERICENTER":85.2282,"MEAN_ANOMALY":274.9218,"EPHEMERIS_TYPE":0,"NORAD_CAT_ID":62707,"ELEMENT_SET_NO":999,"REV_AT_EPOCH":10292,"BSTAR":0.00020027,"MEAN_MOTION_DOT":0.00002197,"MEAN_MOTION_DDOT":0},{"OBJECT_NAME":"ICEYE-X48","OBJECT_ID":"2025-052AV","EPOCH":"2026-07-06T15:03:43.574688","CLASSIFICATION_TYPE":"U","MEAN_MOTION":14.98095409,"ECCENTRICITY":0.0002964,"INCLINATION":97.6839,"RA_OF_ASC_NODE":79.5172,"ARG_OF_PERICENTER":124.3056,"MEAN_ANOMALY":235.8447,"EPHEMERIS_TYPE":0,"NORAD_CAT_ID":63253,"ELEMENT_SET_NO":999,"REV_AT_EPOCH":7158,"BSTAR":0.00020603,"MEAN_MOTION_DOT":0.0000238,"MEAN_MOTION_DDOT":0},{"OBJECT_NAME":"ICEYE-X50","OBJECT_ID":"2025-052AX","EPOCH":"2026-07-07T12:00:58.345920","CLASSIFICATION_TYPE":"U","MEAN_MOTION":14.9534481,"ECCENTRICITY":0.000308,"INCLINATION":97.6867,"RA_OF_ASC_NODE":80.0041,"ARG_OF_PERICENTER":117.8648,"MEAN_ANOMALY":242.2886,"EPHEMERIS_TYPE":0,"NORAD_CAT_ID":63255,"ELEMENT_SET_NO":999,"REV_AT_EPOCH":7168,"BSTAR":0.00014335,"MEAN_MOTION_DOT":0.00001524,"MEAN_MOTION_DDOT":0},{"OBJECT_NAME":"ICEYE-X51","OBJECT_ID":"2025-052AZ","EPOCH":"2026-07-07T12:36:19.198080","CLASSIFICATION_TYPE":"U","MEAN_MOTION":15.0086979,"ECCENTRICITY":0.0002009,"INCLINATION":97.7595,"RA_OF_ASC_NODE":83.5819,"ARG_OF_PERICENTER":71.2795,"MEAN_ANOMALY":288.8646,"EPHEMERIS_TYPE":0,"NORAD_CAT_ID":63257,"ELEMENT_SET_NO":999,"REV_AT_EPOCH":7185,"BSTAR":0.00020928,"MEAN_MOTION_DOT":0.00002602,"MEAN_MOTION_DDOT":0},{"OBJECT_NAME":"ICEYE-X46","OBJECT_ID":"2025-052BA","EPOCH":"2026-07-06T16:39:57.403296","CLASSIFICATION_TYPE":"U","MEAN_MOTION":14.95342721,"ECCENTRICITY":0.0001487,"INCLINATION":97.6861,"RA_OF_ASC_NODE":79.2121,"ARG_OF_PERICENTER":84.3155,"MEAN_ANOMALY":275.8235,"EPHEMERIS_TYPE":0,"NORAD_CAT_ID":63258,"ELEMENT_SET_NO":999,"REV_AT_EPOCH":7156,"BSTAR":0.00016103,"MEAN_MOTION_DOT":0.00001719,"MEAN_MOTION_DDOT":0},{"OBJECT_NAME":"ICEYE-X54","OBJECT_ID":"2025-135AU","EPOCH":"2026-07-07T12:15:23.516640","CLASSIFICATION_TYPE":"U","MEAN_MOTION":14.94702526,"ECCENTRICITY":0.0001519,"INCLINATION":97.7733,"RA_OF_ASC_NODE":302.7384,"ARG_OF_PERICENTER":215.194,"MEAN_ANOMALY":144.918,"EPHEMERIS_TYPE":0,"NORAD_CAT_ID":64570,"ELEMENT_SET_NO":999,"REV_AT_EPOCH":5693,"BSTAR":0.0001894,"MEAN_MOTION_DOT":0.00001998,"MEAN_MOTION_DDOT":0},{"OBJECT_NAME":"ICEYE-X52","OBJECT_ID":"2025-135AW","EPOCH":"2026-07-07T13:40:49.260576","CLASSIFICATION_TYPE":"U","MEAN_MOTION":14.936339,"ECCENTRICITY":0.0000701,"INCLINATION":97.7758,"RA_OF_ASC_NODE":302.5969,"ARG_OF_PERICENTER":235.6368,"MEAN_ANOMALY":124.4786,"EPHEMERIS_TYPE":0,"NORAD_CAT_ID":64572,"ELEMENT_SET_NO":999,"REV_AT_EPOCH":5692,"BSTAR":0.00010213,"MEAN_MOTION_DOT":0.00001022,"MEAN_MOTION_DDOT":0},{"OBJECT_NAME":"ICEYE-X56","OBJECT_ID":"2025-135AY","EPOCH":"2026-07-07T13:41:13.653888","CLASSIFICATION_TYPE":"U","MEAN_MOTION":14.95732367,"ECCENTRICITY":0.0000875,"INCLINATION":97.7756,"RA_OF_ASC_NODE":303.3714,"ARG_OF_PERICENTER":245.7765,"MEAN_ANOMALY":114.3365,"EPHEMERIS_TYPE":0,"NORAD_CAT_ID":64574,"ELEMENT_SET_NO":999,"REV_AT_EPOCH":5697,"BSTAR":0.00017924,"MEAN_MOTION_DOT":0.00001939,"MEAN_MOTION_DDOT":0},{"OBJECT_NAME":"ICEYE-X57","OBJECT_ID":"2025-135BC","EPOCH":"2026-07-07T09:37:18.744960","CLASSIFICATION_TYPE":"U","MEAN_MOTION":15.00872542,"ECCENTRICITY":0.0002061,"INCLINATION":97.7998,"RA_OF_ASC_NODE":304.9273,"ARG_OF_PERICENTER":61.3889,"MEAN_ANOMALY":298.7541,"EPHEMERIS_TYPE":0,"NORAD_CAT_ID":64578,"ELEMENT_SET_NO":999,"REV_AT_EPOCH":5705,"BSTAR":0.0002843,"MEAN_MOTION_DOT":0.00003556,"MEAN_MOTION_DDOT":0},{"OBJECT_NAME":"ICEYE-X55","OBJECT_ID":"2025-135BF","EPOCH":"2026-07-07T13:49:02.085312","CLASSIFICATION_TYPE":"U","MEAN_MOTION":14.95330709,"ECCENTRICITY":0.0001909,"INCLINATION":97.7753,"RA_OF_ASC_NODE":303.2072,"ARG_OF_PERICENTER":279.2088,"MEAN_ANOMALY":80.8917,"EPHEMERIS_TYPE":0,"NORAD_CAT_ID":64581,"ELEMENT_SET_NO":999,"REV_AT_EPOCH":5696,"BSTAR":0.00019229,"MEAN_MOTION_DOT":0.00002062,"MEAN_MOTION_DDOT":0}]}
